[{"OBJECT_NAME":"STARLINK-31403","OBJECT_ID":"2024-045J","EPOCH":"2026-03-09T01:57:30.241728","MEAN_MOTION":15.27581752,"ECCENTRICITY":0.00012955,"INCLINATION":43.0043,"RA_OF_ASC_NODE":74.5467,"ARG_OF_PERICENTER":248.8644,"MEAN_ANOMALY":111.207,"EPHEMERIS_TYPE":0,"CLASSIFICATION_TYPE":"U","NORAD_CAT_ID":59186,"ELEMENT_SET_NO":999,"REV_AT_EPOCH":11325,"BSTAR":3.1976183e-5,"MEAN_MOTION_DOT":6.18e-6,"MEAN_MOTION_DDOT":0},{"OBJECT_NAME":"OBJECT E","OBJECT_ID":"2024-174E","EPOCH":"2026-03-09T23:40:24.424320","MEAN_MOTION":15.26241811,"ECCENTRICITY":0.00122518,"INCLINATION":97.4515,"RA_OF_ASC_NODE":80.1669,"ARG_OF_PERICENTER":217.7524,"MEAN_ANOMALY":142.2856,"EPHEMERIS_TYPE":0,"CLASSIFICATION_TYPE":"U","NORAD_CAT_ID":61242,"ELEMENT_SET_NO":999,"REV_AT_EPOCH":8070,"BSTAR":0.00031155901,"MEAN_MOTION_DOT":8.013e-5,"MEAN_MOTION_DDOT":0}]
